{"type": "FeatureCollection", "features": [ {"type": "Feature", "properties": {"norad_id": 60989, "name": "SENTINEL-2C", "group": "resource", "lat": 21.353076219491776, "lon": 61.911911215706304, "alt_km": 788.5348791474244, "timestamp": "2025-12-18T21:31:50.640087+00:00", "meta": {"OBJECT_NAME": "SENTINEL-2C", "OBJECT_ID": "2024-157A", "EPOCH": "2025-12-18T04:38:48.740352", "MEAN_MOTION": 14.30819708, "ECCENTRICITY": 0.00012236, "INCLINATION": 98.5678, "RA_OF_ASC_NODE": 64.5976, "ARG_OF_PERICENTER": 96.5555, "MEAN_ANOMALY": 263.5768, "EPHEMERIS_TYPE": 0, "CLASSIFICATION_TYPE": "U", "NORAD_CAT_ID": 60989, "ELEMENT_SET_NO": 999, "REV_AT_EPOCH": 6710, "BSTAR": 6.2374404e-05, "MEAN_MOTION_DOT": 1.2e-06, "MEAN_MOTION_DDOT": 0}, "tle": {"line1": "1 60989U 24157A   25352.19361968  .00000120  00000+0  62374-4 0  9999", "line2": "2 60989  98.5678  64.5976 0001223  96.5555 263.5768 14.30819708 67109"}}, "geometry": {"type": "Point", "coordinates": [61.911911215706304, 21.353076219491776]}}, {"type": "Feature", "properties": {"norad_id": 61735, "name": "IONOSFERA-M 1", "group": "resource", "lat": 69.30653478452065, "lon": 66.73035163623294, "alt_km": 809.4924254322741, "timestamp": "2025-12-18T21:31:50.640098+00:00", "meta": {"OBJECT_NAME": "IONOSFERA-M 1", "OBJECT_ID": "2024-199A", "EPOCH": "2025-12-18T07:31:05.897280", "MEAN_MOTION": 14.22715223, "ECCENTRICITY": 6.916e-05, "INCLINATION": 98.7401, "RA_OF_ASC_NODE": 222.1187, "ARG_OF_PERICENTER": 13.0907, "MEAN_ANOMALY": 347.0289, "EPHEMERIS_TYPE": 0, "CLASSIFICATION_TYPE": "U", "NORAD_CAT_ID": 61735, "ELEMENT_SET_NO": 999, "REV_AT_EPOCH": 10198, "BSTAR": 3.9839906e-05, "MEAN_MOTION_DOT": 4.5e-07, "MEAN_MOTION_DDOT": 0}, "tle": {"line1": "1 61735U 24199A   25352.31326270  .00000045  00000+0  39840-4 0  9994", "line2": "2 61735  98.7401 222.1187 0000691  13.0907 347.0289 14.22715223101983"}}, "geometry": {"type": "Point", "coordinates": [66.73035163623294, 69.30653478452065]}}, {"type": "Feature", "properties": {"norad_id": 61736, "name": "IONOSFERA-M 2", "group": "resource", "lat": -66.91599462412793, "lon": -116.23048186724927, "alt_km": 824.6448561732586, "timestamp": "2025-12-18T21:31:50.640108+00:00", "meta": {"OBJECT_NAME": "IONOSFERA-M 2", "OBJECT_ID": "2024-199B", "EPOCH": "2025-12-18T06:39:42.352128", "MEAN_MOTION": 14.22717436, "ECCENTRICITY": 0.00017657, "INCLINATION": 98.7406, "RA_OF_ASC_NODE": 221.9956, "ARG_OF_PERICENTER": 103.5459, "MEAN_ANOMALY": 256.5916, "EPHEMERIS_TYPE": 0, "CLASSIFICATION_TYPE": "U", "NORAD_CAT_ID": 61736, "ELEMENT_SET_NO": 999, "REV_AT_EPOCH": 10510, "BSTAR": 4.5769374e-05, "MEAN_MOTION_DOT": 5.8e-07, "MEAN_MOTION_DDOT": 0}, "tle": {"line1": "1 61736U 24199B   25352.27757352  .00000058  00000+0  45769-4 0  9990", "line2": "2 61736  98.7406 221.9956 0001765 103.5459 256.5916 14.22717436105107"}}, "geometry": {"type": "Point", "coordinates": [-116.23048186724927, -66.91599462412793]}}, {"type": "Feature", "properties": {"norad_id": 63772, "name": "BIOMASS", "group": "resource", "lat": 35.05543109690688, "lon": 172.10344197743095, "alt_km": 666.0235031090378, "timestamp": "2025-12-18T21:31:50.640119+00:00", "meta": {"OBJECT_NAME": "BIOMASS", "OBJECT_ID": "2025-090A", "EPOCH": "2025-12-18T06:38:32.251488", "MEAN_MOTION": 14.67532145, "ECCENTRICITY": 0.00011505, "INCLINATION": 98.07, "RA_OF_ASC_NODE": 177.2057, "ARG_OF_PERICENTER": 79.3908, "MEAN_ANOMALY": 280.7426, "EPHEMERIS_TYPE": 0, "CLASSIFICATION_TYPE": "U", "NORAD_CAT_ID": 63772, "ELEMENT_SET_NO": 999, "REV_AT_EPOCH": 3415, "BSTAR": 0.00016362921, "MEAN_MOTION_DOT": 8.8e-06, "MEAN_MOTION_DDOT": 0}, "tle": {"line1": "1 63772U 25090A   25352.27676217  .00000880  00000+0  16363-3 0  9993", "line2": "2 63772  98.0700 177.2057 0001150  79.3908 280.7426 14.67532145 34153"}}, "geometry": {"type": "Point", "coordinates": [172.10344197743095, 35.05543109690688]}}, {"type": "Feature", "properties": {"norad_id": 64694, "name": "GOSAT-GW (IBUKI GW)", "group": "resource", "lat": -64.46294246426045, "lon": 91.08265789537688, "alt_km": 677.0445793289828, "timestamp": "2025-12-18T21:31:50.640128+00:00", "meta": {"OBJECT_NAME": "GOSAT-GW (IBUKI GW)", "OBJECT_ID": "2025-141A", "EPOCH": "2025-12-18T07:19:26.898816", "MEAN_MOTION": 14.67563725, "ECCENTRICITY": 0.00014432, "INCLINATION": 98.0433, "RA_OF_ASC_NODE": 287.7172, "ARG_OF_PERICENTER": 83.5867, "MEAN_ANOMALY": 276.5503, "EPHEMERIS_TYPE": 0, "CLASSIFICATION_TYPE": "U", "NORAD_CAT_ID": 64694, "ELEMENT_SET_NO": 999, "REV_AT_EPOCH": 2531, "BSTAR": 0.0001284122, "MEAN_MOTION_DOT": 6.81e-06, "MEAN_MOTION_DDOT": 0}, "tle": {"line1": "1 64694U 25141A   25352.30517244  .00000681  00000+0  12841-3 0  9998", "line2": "2 64694  98.0433 287.7172 0001443  83.5867 276.5503 14.67563725 25316"}}, "geometry": {"type": "Point", "coordinates": [91.08265789537688, -64.46294246426045]}}, {"type": "Feature", "properties": {"norad_id": 64876, "name": "IONOSFERA-M 3", "group": "resource", "lat": -51.824754980328706, "lon": -34.34124358894187, "alt_km": 827.7020549974959, "timestamp": "2025-12-18T21:31:50.640139+00:00", "meta": {"OBJECT_NAME": "IONOSFERA-M 3", "OBJECT_ID": "2025-155A", "EPOCH": "2025-12-18T06:34:24.845952", "MEAN_MOTION": 14.21442361, "ECCENTRICITY": 0.00020857, "INCLINATION": 98.579, "RA_OF_ASC_NODE": 313.9835, "ARG_OF_PERICENTER": 51.0295, "MEAN_ANOMALY": 309.1069, "EPHEMERIS_TYPE": 0, "CLASSIFICATION_TYPE": "U", "NORAD_CAT_ID": 64876, "ELEMENT_SET_NO": 999, "REV_AT_EPOCH": 2070, "BSTAR": 4.1317151e-05, "MEAN_MOTION_DOT": 4.8e-07, "MEAN_MOTION_DDOT": 0}, "tle": {"line1": "1 64876U 25155A   25352.27389868  .00000048  00000+0  41317-4 0  9998", "line2": "2 64876  98.5790 313.9835 0002085  51.0295 309.1069 14.21442361 20705"}}, "geometry": {"type": "Point", "coordinates": [-34.34124358894187, -51.824754980328706]}}, {"type": "Feature", "properties": {"norad_id": 64877, "name": "IONOSFERA-M 4", "group": "resource", "lat": 50.984559361756425, "lon": 145.24606437363659, "alt_km": 815.405903135128, "timestamp": "2025-12-18T21:31:50.640149+00:00", "meta": {"OBJECT_NAME": "IONOSFERA-M 4", "OBJECT_ID": "2025-155B", "EPOCH": "2025-12-18T07:24:54.188064", "MEAN_MOTION": 14.21443582, "ECCENTRICITY": 0.00014707, "INCLINATION": 98.5788, "RA_OF_ASC_NODE": 313.9371, "ARG_OF_PERICENTER": 58.1675, "MEAN_ANOMALY": 301.9646, "EPHEMERIS_TYPE": 0, "CLASSIFICATION_TYPE": "U", "NORAD_CAT_ID": 64877, "ELEMENT_SET_NO": 999, "REV_AT_EPOCH": 2070, "BSTAR": 4.4211805e-05, "MEAN_MOTION_DOT": 5.4e-07, "MEAN_MOTION_DDOT": 0}, "tle": {"line1": "1 64877U 25155B   25352.30896051  .00000054  00000+0  44212-4 0  9994", "line2": "2 64877  98.5788 313.9371 0001470  58.1675 301.9646 14.21443582 20702"}}, "geometry": {"type": "Point", "coordinates": [145.24606437363659, 50.984559361756425]}}, {"type": "Feature", "properties": {"norad_id": 64899, "name": "MICROCARB", "group": "resource", "lat": -36.80452791484239, "lon": 74.18529634257114, "alt_km": 672.5801925769765, "timestamp": "2025-12-18T21:31:50.640160+00:00", "meta": {"OBJECT_NAME": "MICROCARB", "OBJECT_ID": "2025-156A", "EPOCH": "2025-12-18T05:23:11.464800", "MEAN_MOTION": 14.72066066, "ECCENTRICITY": 0.00174329, "INCLINATION": 98.002, "RA_OF_ASC_NODE": 67.4818, "ARG_OF_PERICENTER": 128.175, "MEAN_ANOMALY": 232.1031, "EPHEMERIS_TYPE": 0, "CLASSIFICATION_TYPE": "U", "NORAD_CAT_ID": 64899, "ELEMENT_SET_NO": 999, "REV_AT_EPOCH": 2134, "BSTAR": 0.00010062638, "MEAN_MOTION_DOT": 5.84e-06, "MEAN_MOTION_DDOT": 0}, "tle": {"line1": "1 64899U 25156A   25352.22443825  .00000584  00000+0  10063-3 0  9991", "line2": "2 64899  98.0020  67.4818 0017432 128.1750 232.1031 14.72066066 21342"}}, "geometry": {"type": "Point", "coordinates": [74.18529634257114, -36.80452791484239]}}, {"type": "Feature", "properties": {"norad_id": 64900, "name": "CO3D 3", "group": "resource", "lat": -10.33522333158207, "lon": 70.54091088064655, "alt_km": 509.5668529853074, "timestamp": "2025-12-18T21:31:50.640170+00:00", "meta": {"OBJECT_NAME": "CO3D 3", "OBJECT_ID": "2025-156B", "EPOCH": "2025-12-18T07:21:31.892832", "MEAN_MOTION": 15.20210832, "ECCENTRICITY": 0.00013822, "INCLINATION": 97.4346, "RA_OF_ASC_NODE": 68.5943, "ARG_OF_PERICENTER": 84.5738, "MEAN_ANOMALY": 275.5654, "EPHEMERIS_TYPE": 0, "CLASSIFICATION_TYPE": "U", "NORAD_CAT_ID": 64900, "ELEMENT_SET_NO": 999, "REV_AT_EPOCH": 2205, "BSTAR": 0.00017093308, "MEAN_MOTION_DOT": 3.635e-05, "MEAN_MOTION_DDOT": 0}, "tle": {"line1": "1 64900U 25156B   25352.30661913  .00003635  00000+0  17093-3 0  9993", "line2": "2 64900  97.4346  68.5943 0001382  84.5738 275.5654 15.20210832 22055"}}, "geometry": {"type": "Point", "coordinates": [70.54091088064655, -10.33522333158207]}}, {"type": "Feature", "properties": {"norad_id": 64901, "name": "CO3D 4", "group": "resource", "lat": -11.198647522868422, "lon": 70.65777536081518, "alt_km": 510.4028909173994, "timestamp": "2025-12-18T21:31:50.640180+00:00", "meta": {"OBJECT_NAME": "CO3D 4", "OBJECT_ID": "2025-156C", "EPOCH": "2025-12-18T05:46:59.027808", "MEAN_MOTION": 15.20219527, "ECCENTRICITY": 0.00012052, "INCLINATION": 97.4345, "RA_OF_ASC_NODE": 68.5296, "ARG_OF_PERICENTER": 177.693, "MEAN_ANOMALY": 182.4311, "EPHEMERIS_TYPE": 0, "CLASSIFICATION_TYPE": "U", "NORAD_CAT_ID": 64901, "ELEMENT_SET_NO": 999, "REV_AT_EPOCH": 2204, "BSTAR": 0.00026223677, "MEAN_MOTION_DOT": 5.616e-05, "MEAN_MOTION_DDOT": 0}, "tle": {"line1": "1 64901U 25156C   25352.24096097  .00005616  00000+0  26224-3 0  9999", "line2": "2 64901  97.4345  68.5296 0001205 177.6930 182.4311 15.20219527 22043"}}, "geometry": {"type": "Point", "coordinates": [70.65777536081518, -11.198647522868422]}}]}